[Satellite]
VERSION=1.1
NAME=HINODE (SOLAR-B)
NICKNAME=HINODE (SOLAR-B)
TLE1=1 29479U 06041A   19317.50910505  .00000071  00000-0  22250-4 0  9991
TLE2=2 29479  98.1659 325.8995 0016480 335.4820  24.5598 14.65025670702138
STATUS=0
